[{"OBJECT_NAME":"STARLINK-3612","OBJECT_ID":"2022-017C","EPOCH":"2026-03-09T22:45:39.042720","MEAN_MOTION":15.08842412,"ECCENTRICITY":0.0001348,"INCLINATION":53.2194,"RA_OF_ASC_NODE":337.9603,"ARG_OF_PERICENTER":82.8992,"MEAN_ANOMALY":277.2154,"EPHEMERIS_TYPE":0,"CLASSIFICATION_TYPE":"U","NORAD_CAT_ID":51770,"ELEMENT_SET_NO":999,"REV_AT_EPOCH":22265,"BSTAR":-3.9486148e-5,"MEAN_MOTION_DOT":-9.16e-6,"MEAN_MOTION_DDOT":0},{"OBJECT_NAME":"LEMUR-2-NEUROSPICY","OBJECT_ID":"2025-061E","EPOCH":"2026-03-09T21:29:47.005152","MEAN_MOTION":15.13370729,"ECCENTRICITY":0.00155025,"INCLINATION":97.5545,"RA_OF_ASC_NODE":45.3302,"ARG_OF_PERICENTER":239.5457,"MEAN_ANOMALY":120.4243,"EPHEMERIS_TYPE":0,"CLASSIFICATION_TYPE":"U","NORAD_CAT_ID":63355,"ELEMENT_SET_NO":999,"REV_AT_EPOCH":5259,"BSTAR":0.00032487858,"MEAN_MOTION_DOT":5.745e-5,"MEAN_MOTION_DDOT":0}]
